OBJECT_NAME,OBJECT_ID,EPOCH,MEAN_MOTION,ECCENTRICITY,INCLINATION,RA_OF_ASC_NODE,ARG_OF_PERICENTER,MEAN_ANOMALY,EPHEMERIS_TYPE,CLASSIFICATION_TYPE,NORAD_CAT_ID,ELEMENT_SET_NO,REV_AT_EPOCH,BSTAR,MEAN_MOTION_DOT,MEAN_MOTION_DDOT
KOREASAT 5 (MUGUNGWHA 5),2006-034A,2026-07-19T06:52:04.942848,1.00272170,.0001758,1.8662,82.5925,79.1498,351.4059,0,U,29349,999,4164,0,-.364E-5,0
DIRECTV 9S,2006-043A,2026-07-19T06:42:38.615904,1.00271601,.00050725,2.5018,80.5171,33.1948,182.8143,0,U,29494,999,5170,0,-.12E-5,0
OPTUS D1,2006-043B,2026-07-19T03:38:04.944768,1.00272268,.00036442,3.1152,79.2649,35.5758,28.5791,0,U,29495,999,7244,0,-.191E-5,0
BADR-4,2006-051A,2026-07-19T06:29:52.074240,1.00273767,.00048926,2.0858,80.7702,34.0353,314.1779,0,U,29526,999,5158,0,.15E-5,0
WILDBLUE-1,2006-054A,2026-07-19T06:42:38.615904,1.00272043,.00014557,2.8840,80.0802,32.1620,174.2716,0,U,29643,999,5411,0,-.56E-6,0
SKYNET 5A,2007-007B,2026-07-19T02:57:21.702240,1.00273379,.00034951,5.3784,73.3465,45.8716,317.2477,0,U,30794,999,7102,0,-.28E-5,0
ANIK F3,2007-009A,2026-07-19T06:55:43.108896,1.00272365,.00026213,1.2788,83.4699,34.2671,164.5457,0,U,31102,999,4688,0,-.7E-7,0
ASTRA 1L,2007-016A,2026-07-19T06:13:01.189056,1.00270901,.00053871,1.4028,81.3205,36.4491,248.0173,0,U,31306,999,4530,0,-.19E-5,0
GALAXY 17 (G-17),2007-016B,2026-07-19T05:55:47.840736,1.00271154,.00037192,3.0509,79.4975,37.3766,184.0853,0,U,31307,999,7012,0,-.213E-5,0
INTELSAT 11 (IS-11),2007-044B,2026-07-19T06:15:38.437920,0.99053079,.00043851,3.6471,78.2807,99.3647,198.0711,0,U,32253,999,6876,0,-.23E-5,0
WGS F1 (USA 195),2007-046A,2026-07-19T00:02:38.856768,1.00270361,.0000199,0.0153,78.8864,113.4275,62.6225,0,U,32258,999,5265,0,-.273E-5,0
SKYNET 5B,2007-056B,2026-07-19T06:27:14.825376,1.00269219,.00036506,5.3303,73.1179,41.5102,304.3548,0,U,32294,999,6851,0,.132E-5,0
ASTRA 4A,2007-057A,2026-07-19T06:21:22.887936,1.00273097,.00025573,0.0503,271.5210,211.6278,274.0451,0,U,32299,999,5196,0,.27E-6,0
HORIZONS-2,2007-063B,2026-07-19T05:36:34.937280,1.00272804,.00036103,2.6829,80.2343,18.4329,208.6971,0,U,32388,999,6813,0,-.26E-5,0
THURAYA-3,2008-001A,2026-07-19T03:12:52.363296,1.00273254,.00022803,6.0427,35.8280,78.3836,294.6323,0,U,32404,999,6781,0,.1E-7,0
THOR 5,2008-006A,2026-07-19T06:19:45.542784,1.00273048,.00024819,0.0621,251.1379,234.0634,266.0368,0,U,32487,999,6763,0,-.14E-6,0
AMC-14,2008-011A,2026-07-18T11:53:46.942080,1.00420408,.00391214,24.0463,20.1410,8.5379,166.5729,0,U,32708,999,6848,0,-.204E-5,0
DIRECTV 11,2008-013A,2026-07-19T06:42:38.615904,1.00271111,.00001038,0.0031,212.5451,223.2446,222.7471,0,U,32729,999,4591,0,-.131E-5,0
ICO G1,2008-016A,2026-07-19T05:03:38.743776,1.00272721,.0002229,5.5295,36.0280,74.3291,169.7160,0,U,32763,999,6686,0,-.18E-5,0
VINASAT-1,2008-018A,2026-07-19T06:57:41.904576,1.00271530,.00016897,0.0417,267.5137,220.7392,45.1850,0,U,32767,999,6691,0,-.333E-5,0
STAR ONE C2,2008-018B,2026-07-19T05:40:01.483392,1.00278539,.00027323,1.3203,82.1592,40.8792,194.0098,0,U,32768,999,6697,0,-.283E-5,0
AMOS-3,2008-022A,2026-07-19T03:12:44.875008,1.00489712,.00031494,0.5358,85.7677,82.7012,239.9811,0,U,32794,999,8265,0,-.29E-6,0
GALAXY 18 (G-18),2008-024A,2026-07-19T05:17:58.612128,1.00271765,.00029528,0.0211,81.9728,35.2298,136.2801,0,U,32951,999,4617,0,.2E-6,0
ZHONGXING-9,2008-028A,2026-07-17T17:30:38.547648,1.00268541,.00032719,0.8452,84.9376,31.7354,173.8616,0,U,33051,999,6634,0,-.257E-5,0
SKYNET 5C,2008-030A,2026-07-18T23:46:38.730720,1.00272410,.0004271,3.8684,76.6629,47.9744,151.0188,0,U,33055,999,6627,0,-.147E-5,0
TURKSAT 3A,2008-030B,2026-07-19T04:49:21.830304,1.00272686,.00049745,0.0453,78.4709,19.9452,312.8866,0,U,33056,999,5267,0,.141E-5,0
ECHOSTAR 11,2008-035A,2026-07-19T06:42:38.615904,1.00271608,.00023395,1.0864,83.8156,25.7404,178.3612,0,U,33207,999,5153,0,-.63E-6,0
SUPERBIRD-C2,2008-038A,2026-07-19T05:16:11.756064,1.00271549,.00063346,2.4418,80.8667,39.4035,31.7905,0,U,33274,999,10605,0,-.313E-5,0
INMARSAT 4-F3,2008-039A,2026-07-19T06:19:13.982592,1.00271517,.00027194,4.3205,31.7047,94.2440,167.9258,0,U,33278,999,4686,0,-.147E-5,0
NIMIQ 4,2008-044A,2026-07-19T05:34:01.253280,1.00270713,.00018358,0.0174,54.5053,54.0387,189.9800,0,U,33373,999,6530,0,-.225E-5,0
GALAXY 19 (G-19),2008-045A,2026-07-19T05:28:35.430240,1.00271024,.00025293,0.0467,241.5658,246.7814,153.8146,0,U,33376,999,6522,0,-.144E-5,0
ASTRA 1M,2008-057A,2026-07-19T06:25:29.992800,1.00271735,.00046301,0.3771,82.8402,43.1093,286.8442,0,U,33436,999,4605,0,.115E-5,0
