KOREASAT 5 (MUGUNGWHA 5)
1 29349U 06034A   26200.28616832 -.00000364  00000+0  00000+0 0  9998
2 29349   1.8662  82.5925 0001758  79.1498 351.4059  1.00272170 41644
DIRECTV 9S              
1 29494U 06043A   26200.27961361 -.00000120  00000+0  00000+0 0  9998
2 29494   2.5018  80.5171 0005072  33.1948 182.8143  1.00271601 51708
OPTUS D1                
1 29495U 06043B   26200.15144612 -.00000191  00000+0  00000+0 0  9996
2 29495   3.1152  79.2649 0003644  35.5758  28.5791  1.00272268 72447
BADR-4                  
1 29526U 06051A   26200.27074160  .00000150  00000+0  00000+0 0  9997
2 29526   2.0858  80.7702 0004892  34.0353 314.1779  1.00273767 51588
WILDBLUE-1              
1 29643U 06054A   26200.27961361 -.00000056  00000+0  00000+0 0  9994
2 29643   2.8840  80.0802 0001455  32.1620 174.2716  1.00272043 54113
SKYNET 5A               
1 30794U 07007B   26200.12316785 -.00000280  00000+0  00000+0 0  9999
2 30794   5.3784  73.3465 0003495  45.8716 317.2477  1.00273379 71025
ANIK F3                 
1 31102U 07009A   26200.28869339 -.00000007  00000+0  00000+0 0  9997
2 31102   1.2788  83.4699 0002621  34.2671 164.5457  1.00272365 46882
ASTRA 1L                
1 31306U 07016A   26200.25904154 -.00000190  00000+0  00000+0 0  9996
2 31306   1.4028  81.3205 0005387  36.4491 248.0173  1.00270901 45306
GALAXY 17 (G-17)        
1 31307U 07016B   26200.24708149 -.00000213  00000+0  00000+0 0  9998
2 31307   3.0509  79.4975 0003719  37.3766 184.0853  1.00271154 70126
INTELSAT 11 (IS-11)     
1 32253U 07044B   26200.26086155 -.00000230  00000+0  00000+0 0  9997
2 32253   3.6471  78.2807 0004385  99.3647 198.0711  0.99053079 68764
WGS F1 (USA 195)        
1 32258U 07046A   26200.00183862 -.00000273  00000+0  00000+0 0  9996
2 32258   0.0153  78.8864 0000199 113.4275  62.6225  1.00270361 52655
SKYNET 5B               
1 32294U 07056B   26200.26892159  .00000132  00000+0  00000+0 0  9994
2 32294   5.3303  73.1179 0003650  41.5102 304.3548  1.00269219 68518
ASTRA 4A                
1 32299U 07057A   26200.26484824  .00000027  00000+0  00000+0 0  9999
2 32299   0.0503 271.5210 0002557 211.6278 274.0451  1.00273097 51962
HORIZONS-2              
1 32388U 07063B   26200.23373770 -.00000260  00000+0  00000+0 0  9999
2 32388   2.6829  80.2343 0003610  18.4329 208.6971  1.00272804 68135
THURAYA-3               
1 32404U 08001A   26200.13393939  .00000001  00000+0  00000+0 0  9991
2 32404   6.0427  35.8280 0002280  78.3836 294.6323  1.00273254 67812
THOR 5                  
1 32487U 08006A   26200.26372156 -.00000014  00000+0  00000+0 0  9994
2 32487   0.0621 251.1379 0002481 234.0634 266.0368  1.00273048 67638
AMC-14                  
1 32708U 08011A   26199.49568220 -.00000204  00000+0  00000+0 0  9998
2 32708  24.0463  20.1410 0039121   8.5379 166.5729  1.00420408 68488
DIRECTV 11              
1 32729U 08013A   26200.27961361 -.00000131  00000+0  00000+0 0  9994
2 32729   0.0031 212.5451 0000103 223.2446 222.7471  1.00271111 45914
ICO G1                  
1 32763U 08016A   26200.21086509 -.00000180  00000+0  00000+0 0  9995
2 32763   5.5295  36.0280 0002229  74.3291 169.7160  1.00272721 66867
VINASAT-1               
1 32767U 08018A   26200.29006834 -.00000333  00000+0  00000+0 0  9992
2 32767   0.0417 267.5137 0001689 220.7392  45.1850  1.00271530 66913
STAR ONE C2             
1 32768U 08018B   26200.23612828 -.00000283  00000+0  00000+0 0  9997
2 32768   1.3203  82.1592 0002732  40.8792 194.0098  1.00278539 66972
AMOS-3                  
1 32794U 08022A   26200.13385272 -.00000029  00000+0  00000+0 0  9998
2 32794   0.5358  85.7677 0003149  82.7012 239.9811  1.00489712 82651
GALAXY 18 (G-18)        
1 32951U 08024A   26200.22081727  .00000020  00000+0  00000+0 0  9993
2 32951   0.0211  81.9728 0002952  35.2298 136.2801  1.00271765 46176
ZHONGXING-9             
1 33051U 08028A   26198.72961282 -.00000257  00000+0  00000+0 0  9996
2 33051   0.8452  84.9376 0003271  31.7354 173.8616  1.00268541 66344
SKYNET 5C               
1 33055U 08030A   26199.99072605 -.00000147  00000+0  00000+0 0  9993
2 33055   3.8684  76.6629 0004271  47.9744 151.0188  1.00272410 66274
TURKSAT 3A              
1 33056U 08030B   26200.20094711  .00000141  00000+0  00000+0 0  9996
2 33056   0.0453  78.4709 0004974  19.9452 312.8866  1.00272686 52676
ECHOSTAR 11             
1 33207U 08035A   26200.27961361 -.00000063  00000+0  00000+0 0  9994
2 33207   1.0864  83.8156 0002339  25.7404 178.3612  1.00271608 51533
SUPERBIRD-C2            
1 33274U 08038A   26200.21958051 -.00000313  00000+0  00000+0 0  9995
2 33274   2.4418  80.8667 0006334  39.4035  31.7905  1.00271549106051
INMARSAT 4-F3           
1 33278U 08039A   26200.26335628 -.00000147  00000+0  00000+0 0  9999
2 33278   4.3205  31.7047 0002719  94.2440 167.9258  1.00271517 46869
NIMIQ 4                 
1 33373U 08044A   26200.23195895 -.00000225  00000+0  00000+0 0  9995
2 33373   0.0174  54.5053 0001835  54.0387 189.9800  1.00270713 65309
GALAXY 19 (G-19)        
1 33376U 08045A   26200.22818785 -.00000144  00000+0  00000+0 0  9998
2 33376   0.0467 241.5658 0002529 246.7814 153.8146  1.00271024 65222
ASTRA 1M                
1 33436U 08057A   26200.26770825  .00000115  00000+0  00000+0 0  9991
2 33436   0.3771  82.8402 0004630  43.1093 286.8442  1.00271735 46051
